ONEWEB-0043             
1 45149U 20008U   23283.92569163  .00000665  00000+0  18698-2 0  9992
2 45149  87.8880 230.9328 0002389  88.7881 271.3520 13.10374974179807
ONEWEB-0044             
1 45150U 20008V   23283.87856858 -.00000500  00000+0 -14693-2 0  9999
2 45150  87.8879 230.9406 0002237  84.5178 275.6204 13.10367582180095
ONEWEB-0045             
1 45151U 20008W   23283.90162590 -.00000023  00000+0 -99407-4 0  9995
2 45151  87.8979 215.7861 0001869  74.0271 286.1062 13.11415350182708
ONEWEB-0047             
1 45152U 20008X   23284.40495689  .00005984  00000+0  17095-1 0  9999
2 45152  87.8891 230.8396 0003288  78.8480 281.3017 13.10372762180673
ONEWEB-0048             
1 45153U 20008Y   23284.40009203  .00000309  00000+0  84925-3 0  9997
2 45153  87.8879 230.8482 0001992  79.6316 280.5036 13.10367907180265
ONEWEB-0049             
1 45154U 20008Z   23284.40169403  .00001081  00000+0  30611-2 0  9997
2 45154  87.8880 230.8178 0001914  81.3675 278.7669 13.10378204180490
ONEWEB-0051             
1 45155U 20008AA  23284.35781466  .00000412  00000+0  11272-2 0  9990
2 45155  87.8985 215.7295 0001837  70.1390 289.9936 13.11415297183447
ONEWEB-0052             
1 45156U 20008AB  23284.39847405  .00000815  00000+0  22983-2 0  9999
2 45156  87.8884 230.8026 0002072 100.7941 259.3419 13.10370686180388
